Neighborhoods,Address,Location,Coordinates,Latitude,Longitude
Alexandra Park,"Alexandra Park,Toronto,Ontario","Alexandra Park, Spadina—Fort York, Old Toronto, Toronto, Golden Horseshoe, Ontario, Canada","(43.650786999999994, -79.40431814731767, 0.0)",43.650786999999994,-79.40431814731767
Allenby,"Allenby,Toronto,Ontario","Allenby Avenue, Pine Point, Etobicoke North, Etobicoke, Toronto, Golden Horseshoe, Ontario, M9W 3W7, Canada","(43.7113509, -79.5534236, 0.0)",43.7113509,-79.5534236
The Annex,"The Annex,Toronto,Ontario","The Annex, University—Rosedale, Old Toronto, Toronto, Golden Horseshoe, Ontario, M5T 2E9, Canada","(43.6703377, -79.407117, 0.0)",43.6703377,-79.407117
The Beaches,"The Beaches,Toronto,Ontario","The Beaches, Beaches—East York, Old Toronto, Toronto, Golden Horseshoe, Ontario, M4E 1E5, Canada","(43.6710244, -79.296712, 0.0)",43.6710244,-79.296712
Bedford Park,"Bedford Park,Toronto,Ontario","Bedford Park, Eglinton—Lawrence, North York, Toronto, Golden Horseshoe, Ontario, M5M 3E2, Canada","(43.7373876, -79.4109253, 0.0)",43.7373876,-79.4109253
Bickford Park,"Bickford Park,Toronto,Ontario","Bickford Park, 400, University—Rosedale, Old Toronto, Toronto, Golden Horseshoe, Ontario, Canada","(43.66101195, -79.41872029144386, 0.0)",43.66101195,-79.41872029144386
Bloor West Village,"Bloor West Village,Toronto,Ontario","Bloor West Village, Parkdale—High Park, Old Toronto, Toronto, Golden Horseshoe, Ontario, M6S, Canada","(43.6493184, -79.4844358, 0.0)",43.6493184,-79.4844358
Bloor Street Culture Corridor,"Bloor Street Culture Corridor,Toronto,Ontario","Bloor Street Culture Corridor, University—Rosedale, Old Toronto, Toronto, Golden Horseshoe, Ontario, M5S 1M4, Canada","(43.6687015, -79.3941295, 0.0)",43.6687015,-79.3941295
Bloordale Village,"Bloordale Village,Toronto,Ontario","Bloordale Village, Davenport, Old Toronto, Toronto, Golden Horseshoe, Ontario, M6H 3Y9, Canada","(43.6583477, -79.4427428, 0.0)",43.6583477,-79.4427428
Bracondale Hill,"Bracondale Hill,Toronto,Ontario","Bracondale Hill Road, Hillcrest Village, Toronto—St. Paul's, Old Toronto, Toronto, Golden Horseshoe, Ontario, M6G 3Z6, Canada","(43.6761954, -79.4280155, 0.0)",43.6761954,-79.4280155
Brockton Village,"Brockton Village,Toronto,Ontario","Brockton, Davenport, Old Toronto, Toronto, Golden Horseshoe, Ontario, M6H 1C5, Canada","(43.6509173, -79.4400216, 0.0)",43.6509173,-79.4400216
Cabbagetown,"Cabbagetown,Toronto,Ontario","Cabbagetown, Toronto Centre, Old Toronto, Toronto, Golden Horseshoe, Ontario, M5A 3A3, Canada","(43.6644734, -79.3669861, 0.0)",43.6644734,-79.3669861
Carleton Village,"Carleton Village,Toronto,Ontario","Carleton Village, Davenport, Old Toronto, Toronto, Golden Horseshoe, Ontario, M6N, Canada","(43.6707006, -79.4532993, 0.0)",43.6707006,-79.4532993
Casa Loma,"Casa Loma,Toronto,Ontario","Casa Loma, 1, Austin Terrace, Tarragon Village, Toronto—St. Paul's, Old Toronto, Toronto, Golden Horseshoe, Ontario, M5R 1X9, Canada","(43.6781015, -79.409415775, 0.0)",43.6781015,-79.409415775
Chaplin Estates,"Chaplin Estates,Toronto,Ontario","Chaplin Estates, Toronto—St. Paul's, Old Toronto, Toronto, Golden Horseshoe, Ontario, M4R 1A7, Canada","(43.7025981, -79.4032704, 0.0)",43.7025981,-79.4032704
Chinatown,"Chinatown,Toronto,Ontario","Chinatown, Spadina—Fort York, Old Toronto, Toronto, Golden Horseshoe, Ontario, M5T 1H1, Canada","(43.6529237, -79.3980316, 0.0)",43.6529237,-79.3980316
First Chinatown,"First Chinatown,Toronto,Ontario","First Avenue, Riverdale, East Chinatown, Old Toronto, Toronto, Golden Horseshoe, Ontario, M4M 2T4, Canada","(43.6664011, -79.3441272, 0.0)",43.6664011,-79.3441272
Christie Pits,"Christie Pits,Toronto,Ontario","Christie Pits, University—Rosedale, Old Toronto, Toronto, Golden Horseshoe, Ontario, M6G 1T3, Canada","(43.6671385, -79.4227656, 0.0)",43.6671385,-79.4227656
Church and Wellesley,"Church and Wellesley,Toronto,Ontario","Wellesley, Wellesley Bus Terminal, Church-Wellesley Village, Toronto Centre, Old Toronto, Toronto, Golden Horseshoe, Ontario, M4Y 1Z2, Canada","(43.6655242, -79.3838011, 0.0)",43.6655242,-79.3838011
CityPlace,"CityPlace,Toronto,Ontario","CityPlace, Spadina—Fort York, Old Toronto, Toronto, Golden Horseshoe, Ontario, M5N 3Z3, Canada","(43.6392482, -79.3963865, 0.0)",43.6392482,-79.3963865
Corktown,"Corktown,Toronto,Ontario","Corktown, Toronto Centre, Old Toronto, Toronto, Golden Horseshoe, Ontario, M5A 4C2, Canada","(43.6573699, -79.3565129, 0.0)",43.6573699,-79.3565129
Corso Italia,"Corso Italia,Toronto,Ontario","Corso Italia, Davenport, Old Toronto, Toronto, Golden Horseshoe, Ontario, M6H 3L9, Canada","(43.677954, -79.4430828, 0.0)",43.677954,-79.4430828
Corso Italia-Davenport,"Corso Italia-Davenport,Toronto,Ontario","Corso Italia, Davenport, Old Toronto, Toronto, Golden Horseshoe, Ontario, M6H 3L9, Canada","(43.677954, -79.4430828, 0.0)",43.677954,-79.4430828
Davenport,"Davenport,Toronto,Ontario","Davenport, Old Toronto, Toronto, Golden Horseshoe, Ontario, Canada","(43.6715454, -79.4483222, 0.0)",43.6715454,-79.4483222
Davisville Village,"Davisville Village,Toronto,Ontario","Davisville, 1900, Yonge Street, Chaplin Estates, Toronto—St. Paul's, Old Toronto, Toronto, Golden Horseshoe, Ontario, M4S 1Y8, Canada","(43.697936, -79.3972908, 0.0)",43.697936,-79.3972908
Deer Park,"Deer Park,Toronto,Ontario","Deer Park, Toronto—St. Paul's, Old Toronto, Toronto, Golden Horseshoe, Ontario, M4V 1K6, Canada","(43.68809, -79.3940935, 0.0)",43.68809,-79.3940935
Discovery District,"Discovery District,Toronto,Ontario","Discovery District, University—Rosedale, Old Toronto, Toronto, Golden Horseshoe, Ontario, M5G 2C4, Canada","(43.6575555, -79.3894803, 0.0)",43.6575555,-79.3894803
Distillery District,"Distillery District,Toronto,Ontario","Distillery District, Trinity Street, Spadina—Fort York, Old Toronto, Toronto, Golden Horseshoe, Ontario, M5A 3C4, Canada","(43.6502803, -79.3595767, 0.0)",43.6502803,-79.3595767
Downtown Yonge,"Downtown Yonge,Toronto,Ontario","Downtown Yonge, Toronto Centre, Old Toronto, Toronto, Golden Horseshoe, Ontario, M5B 2C3, Canada","(43.6563221, -79.3809161, 0.0)",43.6563221,-79.3809161
Dovercourt Park,"Dovercourt Park,Toronto,Ontario","Dovercourt Park, Davenport, Old Toronto, Toronto, Golden Horseshoe, Ontario, Canada","(43.66522275, -79.4335374449492, 0.0)",43.66522275,-79.4335374449492
Dufferin Grove,"Dufferin Grove,Toronto,Ontario","Dufferin Grove, Davenport, Old Toronto, Toronto, Golden Horseshoe, Ontario, M6H 1A6, Canada","(43.6536319, -79.4264389, 0.0)",43.6536319,-79.4264389
Earlscourt,"Earlscourt,Toronto,Ontario","Earlscourt, Davenport, Old Toronto, Toronto, Golden Horseshoe, Ontario, M6C 1C5, Canada","(43.6762773, -79.4505723, 0.0)",43.6762773,-79.4505723
East Bayfront,"East Bayfront,Toronto,Ontario",,,,
East Chinatown,"East Chinatown,Toronto,Ontario","East Chinatown, Old Toronto, Toronto, Golden Horseshoe, Ontario, Canada","(43.666375, -79.3482306, 0.0)",43.666375,-79.3482306
East Danforth,"East Danforth,Toronto,Ontario","Danforth, 213, Main Street, Danforth East, Beaches—East York, Old Toronto, Toronto, Golden Horseshoe, Ontario, M4C 4X4, Canada","(43.6864333, -79.3003555, 0.0)",43.6864333,-79.3003555
East Toronto,"East Toronto,Toronto,Ontario","E, Stadium Road, Bathurst Quay, Spadina—Fort York, Old Toronto, Toronto, Golden Horseshoe, Ontario, M5V 1B3, Canada","(43.626243, -79.396962, 0.0)",43.626243,-79.396962
Entertainment District,"Entertainment District,Toronto,Ontario","Entertainment District, Spadina—Fort York, Old Toronto, Toronto, Golden Horseshoe, Ontario, M5V 1J5, Canada","(43.6465862, -79.389723, 0.0)",43.6465862,-79.389723
Fashion District,"Fashion District,Toronto,Ontario","Fashion District, Spadina—Fort York, Old Toronto, Toronto, Golden Horseshoe, Ontario, M5V 2H8, Canada","(43.6454561, -79.3949942, 0.0)",43.6454561,-79.3949942
Financial District,"Financial District,Toronto,Ontario","Financial District, Old Toronto, Toronto, Golden Horseshoe, Ontario, Canada","(43.64866395, -79.38153972121495, 0.0)",43.64866395,-79.38153972121495
Forest Hill,"Forest Hill,Toronto,Ontario","Forest Hill, Toronto—St. Paul's, Old Toronto, Toronto, Golden Horseshoe, Ontario, M5P 2W8, Canada","(43.6935586, -79.4139023, 0.0)",43.6935586,-79.4139023
Garden District,"Garden District,Toronto,Ontario","Garden District, Toronto Centre, Old Toronto, Toronto, Golden Horseshoe, Ontario, M5B 1Y7, Canada","(43.6564995, -79.3771141, 0.0)",43.6564995,-79.3771141
Gerrard India Bazaar,"Gerrard India Bazaar,Toronto,Ontario","Gerrard India Bazaar, Toronto—Danforth, Old Toronto, Toronto, Golden Horseshoe, Ontario, M4L 1Z6, Canada","(43.6722231, -79.3235032, 0.0)",43.6722231,-79.3235032
Grange Park,"Grange Park,Toronto,Ontario","Grange Park, Spadina—Fort York, Old Toronto, Toronto, Golden Horseshoe, Ontario, Canada","(43.652196599999996, -79.39231921757992, 0.0)",43.652196599999996,-79.39231921757992
Greektown,"Greektown,Toronto,Ontario","Greektown, Toronto—Danforth, Old Toronto, Toronto, Golden Horseshoe, Ontario, M4K 1P5, Canada","(43.6779017, -79.3489337, 0.0)",43.6779017,-79.3489337
Harbord Village,"Harbord Village,Toronto,Ontario","Harbord Village, University—Rosedale, Old Toronto, Toronto, Golden Horseshoe, Ontario, M5S 2R5, Canada","(43.6615225, -79.4097446, 0.0)",43.6615225,-79.4097446
Harbourfront,"Harbourfront,Toronto,Ontario","Harbourfront, Spadina—Fort York, Old Toronto, Toronto, Golden Horseshoe, Ontario, M5J 2T5, Canada","(43.6400801, -79.3801495, 0.0)",43.6400801,-79.3801495
High Park North,"High Park North,Toronto,Ontario","High Park North, Parkdale—High Park, Old Toronto, Toronto, Golden Horseshoe, Ontario, Canada","(43.6573833, -79.470961, 0.0)",43.6573833,-79.470961
The Junction,"The Junction,Toronto,Ontario","The Junction, Parkdale—High Park, Old Toronto, Toronto, Golden Horseshoe, Ontario, Canada","(43.6654775, -79.470352, 0.0)",43.6654775,-79.470352
Junction Triangle,"Junction Triangle,Toronto,Ontario","Junction Triangle, Davenport, Old Toronto, Toronto, Golden Horseshoe, Ontario, Canada","(43.657830399999995, -79.44799570510732, 0.0)",43.657830399999995,-79.44799570510732
Kensington Market,"Kensington Market,Toronto,Ontario","Kensington Market, University—Rosedale, Old Toronto, Toronto, Golden Horseshoe, Ontario, Canada","(43.6552136, -79.4022604, 0.0)",43.6552136,-79.4022604
Koreatown,"Koreatown,Toronto,Ontario","Koreatown, University—Rosedale, Old Toronto, Toronto, Golden Horseshoe, Ontario, M6E 4A1, Canada","(43.6635564, -79.4184157, 0.0)",43.6635564,-79.4184157
Lawrence Park,"Lawrence Park,Toronto,Ontario","Lawrence Park, Don Valley West, Old Toronto, Toronto, Golden Horseshoe, Ontario, M4N 2L2, Canada","(43.729199, -79.4032525, 0.0)",43.729199,-79.4032525
Leslieville,"Leslieville,Toronto,Ontario","Leslieville, Toronto—Danforth, Old Toronto, Toronto, Golden Horseshoe, Ontario, M4M 1L4, Canada","(43.6627, -79.3328148, 0.0)",43.6627,-79.3328148
Liberty Village,"Liberty Village,Toronto,Ontario","Liberty Village, Spadina—Fort York, Old Toronto, Toronto, Golden Horseshoe, Ontario, M6K 3K4, Canada","(43.6388951, -79.4179531, 0.0)",43.6388951,-79.4179531
Little Italy,"Little Italy,Toronto,Ontario","Little Italy, University—Rosedale, Old Toronto, Toronto, Golden Horseshoe, Ontario, M6G 1B6, Canada","(43.6552079, -79.4148769, 0.0)",43.6552079,-79.4148769
Little Portugal,"Little Portugal,Toronto,Ontario","Little Portugal, Old Toronto, Toronto, Golden Horseshoe, Ontario, Canada","(43.64741325, -79.43111632546047, 0.0)",43.64741325,-79.43111632546047
Little Tibet,"Little Tibet,Toronto,Ontario","Little Tibet, Spadina—Fort York, Old Toronto, Toronto, Golden Horseshoe, Ontario, M6K 1G4, Canada","(43.6389445, -79.4273119, 0.0)",43.6389445,-79.4273119
Lytton Park,"Lytton Park,Toronto,Ontario","Lytton Park, Eglinton—Lawrence, Old Toronto, Toronto, Golden Horseshoe, Ontario, M4R 1P2, Canada","(43.7159986, -79.412291, 0.0)",43.7159986,-79.412291
Midtown,"Midtown,Toronto,Ontario","Minto Midtown - Quantum, Anne Johnston Courtyard, Yonge & Eglinton, Toronto—St. Paul's, Old Toronto, Toronto, Golden Horseshoe, Ontario, Canada","(43.7051999, -79.39741552147335, 0.0)",43.7051999,-79.39741552147335
Moore Park,"Moore Park,Toronto,Ontario","Moore Park, University—Rosedale, Old Toronto, Toronto, Golden Horseshoe, Ontario, M4T 1E6, Canada","(43.6903876, -79.3832965, 0.0)",43.6903876,-79.3832965
Moss Park,"Moss Park,Toronto,Ontario","Moss Park, Toronto Centre, Old Toronto, Toronto, Golden Horseshoe, Ontario, M5A 1S2, Canada","(43.6546438, -79.3697278, 0.0)",43.6546438,-79.3697278
Niagara,"Niagara,Toronto,Ontario","Niagara, Spadina—Fort York, Old Toronto, Toronto, Golden Horseshoe, Ontario, M6J 2L5, Canada","(43.6440753, -79.4086982, 0.0)",43.6440753,-79.4086982
North Toronto,"North Toronto,Toronto,Ontario","North, 113, Ossington Avenue, Ossington, Ossington Strip, Old Toronto, Toronto, Golden Horseshoe, Ontario, M6J 2Z2, Canada","(43.6465466, -79.4195263, 0.0)",43.6465466,-79.4195263
Norway,"Norway,Toronto,Ontario","Little Norway Park, 659, Spadina—Fort York, Old Toronto, Toronto, Golden Horseshoe, Ontario, Canada","(43.63464955, -79.39846402734311, 0.0)",43.63464955,-79.39846402734311
Old Town,"Old Town,Toronto,Ontario","Town, 1187, Bloor Street West, Bloordale Village, Davenport, Old Toronto, Toronto, Golden Horseshoe, Ontario, M6H 1N4, Canada","(43.6590147, -79.4388555, 0.0)",43.6590147,-79.4388555
Palmerston,"Palmerston,Toronto,Ontario","Palmerston Boulevard, Harbord Village, University—Rosedale, Old Toronto, Toronto, Golden Horseshoe, Ontario, M6G 1G5, Canada","(43.6610934, -79.4122283, 0.0)",43.6610934,-79.4122283
Parkdale,"Parkdale,Toronto,Ontario","Parkdale, Old Toronto, Toronto, Golden Horseshoe, Ontario, Canada","(43.6404954, -79.4368965, 0.0)",43.6404954,-79.4368965
Playter Estates,"Playter Estates,Toronto,Ontario","Playter Estates, Toronto—Danforth, Old Toronto, Toronto, Golden Horseshoe, Ontario, M4K 1N2, Canada","(43.6786661, -79.3555177, 0.0)",43.6786661,-79.3555177
Port Lands,"Port Lands,Toronto,Ontario","Port Lands, Toronto—Danforth, Old Toronto, Toronto, Golden Horseshoe, Ontario, M5A 1A4, Canada","(43.6430648, -79.3506012, 0.0)",43.6430648,-79.3506012
Quayside,"Quayside,Toronto,Ontario","Quayside, Spadina—Fort York, Old Toronto, Toronto, Golden Horseshoe, Ontario, Canada","(43.6472502, -79.35817207837727, 0.0)",43.6472502,-79.35817207837727
Queen Street West,"Queen Street West,Toronto,Ontario","Queen Street West, Ossington, Spadina—Fort York, Old Toronto, Toronto, Golden Horseshoe, Ontario, M6J 1H6, Canada","(43.6440933, -79.419177, 0.0)",43.6440933,-79.419177
Railway Lands,"Railway Lands,Toronto,Ontario",,,,
Regent Park,"Regent Park,Toronto,Ontario","Regent Park, Toronto Centre, Old Toronto, Toronto, Golden Horseshoe, Ontario, M5A 3H6, Canada","(43.6607056, -79.3604569, 0.0)",43.6607056,-79.3604569
Riverdale,"Riverdale,Toronto,Ontario","Riverdale, Toronto—Danforth, Old Toronto, Toronto, Golden Horseshoe, Ontario, M4M 1Y2, Canada","(43.6654704, -79.3525936, 0.0)",43.6654704,-79.3525936
Roncesvalles,"Roncesvalles,Toronto,Ontario","Roncesvalles, Parkdale—High Park, Old Toronto, Toronto, Golden Horseshoe, Ontario, Canada","(43.6514426, -79.4510381, 0.0)",43.6514426,-79.4510381
Rosedale,"Rosedale,Toronto,Ontario","Rosedale, University—Rosedale, Old Toronto, Toronto, Golden Horseshoe, Ontario, M4W 1R1, Canada","(43.6783556, -79.3807457, 0.0)",43.6783556,-79.3807457
Runnymede,"Runnymede,Toronto,Ontario","Runnymede, Runnymede Road, High Park North, Parkdale—High Park, Old Toronto, Toronto, Golden Horseshoe, Ontario, M6P, Canada","(43.6517026, -79.4759978, 0.0)",43.6517026,-79.4759978
St. James Town,"St. James Town,Toronto,Ontario","St. James Town, Toronto Centre, Old Toronto, Toronto, Golden Horseshoe, Ontario, M4X 1N4, Canada","(43.6694032, -79.3727041, 0.0)",43.6694032,-79.3727041
St. Lawrence,"St. Lawrence,Toronto,Ontario","St. Lawrence, Toronto Centre, Old Toronto, Toronto, Golden Horseshoe, Ontario, M5E 1C2, Canada","(43.649422, -79.3714278, 0.0)",43.649422,-79.3714278
Seaton Village,"Seaton Village,Toronto,Ontario","Seaton Village, University—Rosedale, Old Toronto, Toronto, Golden Horseshoe, Ontario, M6G 2R4, Canada","(43.6692756, -79.4159596, 0.0)",43.6692756,-79.4159596
South Hill,"South Hill,Toronto,Ontario","South Hill, Toronto—St. Paul's, Old Toronto, Toronto, Golden Horseshoe, Ontario, M5R 1V7, Canada","(43.6779261, -79.4057671, 0.0)",43.6779261,-79.4057671
South Core,"South Core,Toronto,Ontario","South Core, Spadina—Fort York, Old Toronto, Toronto, Golden Horseshoe, Ontario, M5E, Canada","(43.6421064, -79.3774455, 0.0)",43.6421064,-79.3774455
Summerhill,"Summerhill,Toronto,Ontario","Summerhill, Charlesworth Lane, Rosedale, University—Rosedale, Old Toronto, Toronto, Golden Horseshoe, Ontario, M4T 1W2, Canada","(43.6816776, -79.3905037, 0.0)",43.6816776,-79.3905037
Swansea,"Swansea,Toronto,Ontario","Swansea, Parkdale—High Park, Old Toronto, Toronto, Golden Horseshoe, Ontario, Canada","(43.64494, -79.478313, 0.0)",43.64494,-79.478313
Toronto Islands,"Toronto Islands,Toronto,Ontario","Toronto Islands, Old Toronto, Toronto, Golden Horseshoe, Ontario, Canada","(43.6230544, -79.39431563721035, 0.0)",43.6230544,-79.39431563721035
Trefann Court,"Trefann Court,Toronto,Ontario","Trefann Court, Toronto Centre, Old Toronto, Toronto, Golden Horseshoe, Ontario, M5A 3E7, Canada","(43.6564893, -79.3628297, 0.0)",43.6564893,-79.3628297
Trinity-Bellwoods,"Trinity-Bellwoods,Toronto,Ontario","Trinity Drive, West Queen West, Spadina—Fort York, Old Toronto, Toronto, Golden Horseshoe, Ontario, M6J 1G3, Canada","(43.6454818, -79.4132487, 0.0)",43.6454818,-79.4132487
Upper Beaches,"Upper Beaches,Toronto,Ontario","Upper Beaches, Old Toronto, Toronto, Golden Horseshoe, Ontario, Canada","(43.6784881, -79.31081921166198, 0.0)",43.6784881,-79.31081921166198
Uptown Toronto,"Uptown Toronto,Toronto,Ontario","The Uptown Residences, 35, Balmuto Street, Yorkville, University—Rosedale, Old Toronto, Toronto, Golden Horseshoe, Ontario, M4W 3L8, Canada","(43.6694927, -79.38741454732649, 0.0)",43.6694927,-79.38741454732649
Wallace Emerson,"Wallace Emerson,Toronto,Ontario","Wallace Emerson, Davenport, Old Toronto, Toronto, Golden Horseshoe, Ontario, M6H 3Z6, Canada","(43.6667328, -79.4464779, 0.0)",43.6667328,-79.4464779
The Ward,"The Ward,Toronto,Ontario","Mary Ward Catholic Secondary School, 3200, Kennedy Road, Scarborough—Agincourt, Scarborough, Toronto, Golden Horseshoe, Ontario, M1V 3S8, Canada","(43.814740549999996, -79.30469548761658, 0.0)",43.814740549999996,-79.30469548761658
West Don Lands,"West Don Lands,Toronto,Ontario","Don Roadway, Port Lands, Toronto—Danforth, Old Toronto, Toronto, Golden Horseshoe, Ontario, M4M 3P2, Canada","(43.6500108, -79.3462549, 0.0)",43.6500108,-79.3462549
Wychwood Park,"Wychwood Park,Toronto,Ontario","Wychwood Park, Old Toronto, Toronto, Golden Horseshoe, Ontario, Canada","(43.677743, -79.42018497794461, 0.0)",43.677743,-79.42018497794461
Yonge–Eglinton,"Yonge–Eglinton,Toronto,Ontario","Yonge & Eglinton, Toronto—St. Paul's, Old Toronto, Toronto, Golden Horseshoe, Ontario, M4S 2B1, Canada","(43.7067479, -79.3983271, 0.0)",43.7067479,-79.3983271
Yorkville,"Yorkville,Toronto,Ontario","Yorkville, University—Rosedale, Old Toronto, Toronto, Golden Horseshoe, Ontario, M5R 1C1, Canada","(43.6713861, -79.3901677, 0.0)",43.6713861,-79.3901677
Agincourt,"Agincourt,Toronto,Ontario","Agincourt, Scarborough—Agincourt, Scarborough, Toronto, Golden Horseshoe, Ontario, M1S 1T3, Canada","(43.7853531, -79.2785494, 0.0)",43.7853531,-79.2785494
Armadale,"Armadale,Toronto,Ontario","Armadale, Scarborough North, Scarborough, Toronto, Golden Horseshoe, Ontario, L3S 3J9, Canada","(43.8365868, -79.2511551, 0.0)",43.8365868,-79.2511551
Bendale,"Bendale,Toronto,Ontario","Bendale, Scarborough Centre, Scarborough, Toronto, Golden Horseshoe, Ontario, M1P 2T8, Canada","(43.7535196, -79.2553355, 0.0)",43.7535196,-79.2553355
Birch Cliff,"Birch Cliff,Toronto,Ontario","The Birch Cliff, Kingston Road, Birchcliff, Scarborough Southwest, Scarborough, Toronto, Golden Horseshoe, Ontario, M1N 1S2, Canada","(43.6918051, -79.2644935, 0.0)",43.6918051,-79.2644935
Brown's Corners,"Brown's Corners,Toronto,Ontario","Browns Corners, Scarborough North, Scarborough, Toronto, Golden Horseshoe, Ontario, M1B 2W4, Canada","(43.8129887, -79.2430221, 0.0)",43.8129887,-79.2430221
Clairlea,"Clairlea,Toronto,Ontario","Clairlea, Beaches—East York, East York, Toronto, Golden Horseshoe, Ontario, M4B 2J0, Canada","(43.7088231, -79.2959856, 0.0)",43.7088231,-79.2959856
Cliffcrest,"Cliffcrest,Toronto,Ontario","Cliffcrest, Scarborough Southwest, Scarborough, Toronto, Golden Horseshoe, Ontario, M1M 1V3, Canada","(43.7218363, -79.2362138, 0.0)",43.7218363,-79.2362138
Cliffside,"Cliffside,Toronto,Ontario","Cliffside, Scarborough Southwest, Scarborough, Toronto, Golden Horseshoe, Ontario, M1N 4E6, Canada","(43.7111699, -79.2481769, 0.0)",43.7111699,-79.2481769
Dorset Park,"Dorset Park,Toronto,Ontario","Dorset Park, Scarborough Centre, Scarborough, Toronto, Golden Horseshoe, Ontario, M1P 1M2, Canada","(43.7528467, -79.282067, 0.0)",43.7528467,-79.282067
Eglinton East,"Eglinton East,Toronto,Ontario","Eglinton, 2995, Eglinton Avenue East, Scarborough Southwest, Scarborough, Toronto, Golden Horseshoe, Ontario, M1J 2E5, Canada","(43.7394646, -79.2320997, 0.0)",43.7394646,-79.2320997
Golden Mile,"Golden Mile,Toronto,Ontario","Golden Mile, Scarborough Southwest, Scarborough, Toronto, Golden Horseshoe, Ontario, M1L 4C2, Canada","(43.7278414, -79.2876217, 0.0)",43.7278414,-79.2876217
Guildwood,"Guildwood,Toronto,Ontario","Guildwood, Westlake Road, Guildwood Village, Scarborough—Guildwood, Scarborough, Toronto, Golden Horseshoe, Ontario, M1E 1L8, Canada","(43.7552251, -79.1982293, 0.0)",43.7552251,-79.1982293
Highland Creek,"Highland Creek,Toronto,Ontario","Highland Creek, Scarborough—Rouge Park, Scarborough, Toronto, Golden Horseshoe, Ontario, M1C 4Y1, Canada","(43.7901172, -79.1733344, 0.0)",43.7901172,-79.1733344
Ionview,"Ionview,Toronto,Ontario","Ionview, Scarborough Centre, Scarborough, Toronto, Golden Horseshoe, Ontario, M1K 2Z9, Canada","(43.7359904, -79.2765146, 0.0)",43.7359904,-79.2765146
L'Amoreaux,"L'Amoreaux,Toronto,Ontario","L'Amoreaux, Scarborough—Agincourt, Scarborough, Toronto, Golden Horseshoe, Ontario, M1W 2S2, Canada","(43.799003, -79.3059669, 0.0)",43.799003,-79.3059669
Malvern,"Malvern,Toronto,Ontario","Malvern, Scarborough—Rouge Park, Scarborough, Toronto, Golden Horseshoe, Ontario, M1B 0C6, Canada","(43.8091955, -79.2217008, 0.0)",43.8091955,-79.2217008
Maryvale,"Maryvale,Toronto,Ontario","Maryvale, Scarborough Centre, Scarborough, Toronto, Golden Horseshoe, Ontario, M1R 4B7, Canada","(43.7590508, -79.3102297, 0.0)",43.7590508,-79.3102297
Milliken,"Milliken,Toronto,Ontario","Milliken, 39, Redlea Avenue, Scarborough—Agincourt, Scarborough, Toronto, Golden Horseshoe, Ontario, M1V 4S5, Canada","(43.8231743, -79.3017626, 0.0)",43.8231743,-79.3017626
Morningside,"Morningside,Toronto,Ontario","Morningside, Scarborough—Guildwood, Scarborough, Toronto, Golden Horseshoe, Ontario, M1E 5E1, Canada","(43.7826012, -79.2049579, 0.0)",43.7826012,-79.2049579
Morningside Heights,"Morningside Heights,Toronto,Ontario","Morningside Heights, Scarborough—Rouge Park, Scarborough, Toronto, Golden Horseshoe, Ontario, M1X 1W2, Canada","(43.8237001, -79.2241521, 0.0)",43.8237001,-79.2241521
Oakridge,"Oakridge,Toronto,Ontario","Oakridge, Scarborough Southwest, Scarborough, Toronto, Golden Horseshoe, Ontario, M1L 3W5, Canada","(43.6971738, -79.2748232, 0.0)",43.6971738,-79.2748232
Port Union,"Port Union,Toronto,Ontario","Port Union, Scarborough—Rouge Park, Scarborough, Toronto, Golden Horseshoe, Ontario, M1C 3B2, Canada","(43.7755039, -79.1349765, 0.0)",43.7755039,-79.1349765
Rouge,"Rouge,Toronto,Ontario","Rouge, Scarborough—Rouge Park, Scarborough, Toronto, Golden Horseshoe, Ontario, M1B 2K5, Canada","(43.8049304, -79.1658374, 0.0)",43.8049304,-79.1658374
Scarborough City Centre,"Scarborough City Centre,Toronto,Ontario","Scarborough, Toronto, Golden Horseshoe, Ontario, Canada","(43.7729744, -79.2576479, 0.0)",43.7729744,-79.2576479
Scarborough Junction,"Scarborough Junction,Toronto,Ontario","Scarborough Junction, Scarborough Southwest, Scarborough, Toronto, Golden Horseshoe, Ontario, M1K 2A7, Canada","(43.7160494, -79.2607028, 0.0)",43.7160494,-79.2607028
Scarborough Village,"Scarborough Village,Toronto,Ontario","Scarborough Village, Scarborough—Guildwood, Scarborough, Toronto, Golden Horseshoe, Ontario, M1J 3M5, Canada","(43.7437422, -79.2116324, 0.0)",43.7437422,-79.2116324
Steeles,"Steeles,Toronto,Ontario","Steeles, Scarborough—Agincourt, Scarborough, Toronto, Golden Horseshoe, Ontario, M1W 3M9, Canada","(43.8161778, -79.3145378, 0.0)",43.8161778,-79.3145378
Tam O'Shanter-Sullivan,"Tam O'Shanter-Sullivan,Toronto,Ontario",,,,
West Hill,"West Hill,Toronto,Ontario","West Hill, Scarborough—Guildwood, Scarborough, Toronto, Golden Horseshoe, Ontario, M1E 2N7, Canada","(43.7689144, -79.1872905, 0.0)",43.7689144,-79.1872905
West Rouge,"West Rouge,Toronto,Ontario","West Rouge, Scarborough—Rouge Park, Scarborough, Toronto, Golden Horseshoe, Ontario, M1C 3Y1, Canada","(43.7859631, -79.1307556, 0.0)",43.7859631,-79.1307556
Wexford,"Wexford,Toronto,Ontario","Wexford, Scarborough Centre, Scarborough, Toronto, Golden Horseshoe, Ontario, M1R 2Z3, Canada","(43.7453767, -79.2947155, 0.0)",43.7453767,-79.2947155
Woburn,"Woburn,Toronto,Ontario","Woburn, Scarborough—Guildwood, Scarborough, Toronto, Golden Horseshoe, Ontario, M1H 2A2, Canada","(43.7598243, -79.2252908, 0.0)",43.7598243,-79.2252908
Baby Point,"Baby Point,Toronto,Ontario","Baby Point, Parkdale—High Park, York, Toronto, Golden Horseshoe, Ontario, M6S, Canada","(43.6558741, -79.4964941, 0.0)",43.6558741,-79.4964941
Fairbank,"Fairbank,Toronto,Ontario","Fairbank, Eglinton—Lawrence, York, Toronto, Golden Horseshoe, Ontario, M6E 2J3, Canada","(43.695689, -79.4503097, 0.0)",43.695689,-79.4503097
Humewood–Cedarvale,"Humewood–Cedarvale,Toronto,Ontario","Humewood Drive, Humewood, Toronto—St. Paul's, York, Toronto, Golden Horseshoe, Ontario, M6C 2X4, Canada","(43.6883215, -79.4280805, 0.0)",43.6883215,-79.4280805
Lambton,"Lambton,Toronto,Ontario","Lambton, York South—Weston, York, Toronto, Golden Horseshoe, Ontario, M6S, Canada","(43.6658675, -79.4992242, 0.0)",43.6658675,-79.4992242
Little Jamaica,"Little Jamaica,Toronto,Ontario","Little Jamaica, Toronto—St. Paul's, York, Toronto, Golden Horseshoe, Ontario, M6E 2H4, Canada","(43.6972812, -79.4427602, 0.0)",43.6972812,-79.4427602
Mount Dennis,"Mount Dennis,Toronto,Ontario","Mount Dennis, York South—Weston, York, Toronto, Golden Horseshoe, Ontario, M6M 5C4, Canada","(43.6869597, -79.4895513, 0.0)",43.6869597,-79.4895513
Oakwood Village,"Oakwood Village,Toronto,Ontario","Oakwood, Davenport, York, Toronto, Golden Horseshoe, Ontario, M6E 3C7, Canada","(43.6827255, -79.4380548, 0.0)",43.6827255,-79.4380548
Old Mill,"Old Mill,Toronto,Ontario","Old Mill, Bloor Street West, Old Mill, Etobicoke—Lakeshore, Etobicoke, Toronto, Golden Horseshoe, Ontario, M8X 0A5, Canada","(43.649826, -79.4943338, 0.0)",43.649826,-79.4943338
Rockcliffe-Smythe,"Rockcliffe-Smythe,Toronto,Ontario",,,,
Silverthorn,"Silverthorn,Toronto,Ontario","Silverthorn, York South—Weston, York, Toronto, Golden Horseshoe, Ontario, M6N, Canada","(43.682123, -79.4715724, 0.0)",43.682123,-79.4715724
Tichester,"Tichester,Toronto,Ontario","Tichester Park, 27, Toronto—St. Paul's, York, Toronto, Golden Horseshoe, Ontario, Canada","(43.6854004, -79.41792039000616, 0.0)",43.6854004,-79.41792039000616
Weston,"Weston,Toronto,Ontario","Weston, York South—Weston, York, Toronto, Golden Horseshoe, Ontario, M9N 2B3, Canada","(43.7001608, -79.5162474, 0.0)",43.7001608,-79.5162474
Amesbury,"Amesbury,Toronto,Ontario","Amesbury Park, York South—Weston, North York, Toronto, Golden Horseshoe, Ontario, Canada","(43.7061619, -79.48349185404643, 0.0)",43.7061619,-79.48349185404643
Armour Heights,"Armour Heights,Toronto,Ontario","Armour Heights, York Centre, North York, Toronto, Golden Horseshoe, Ontario, M3H 1M1, Canada","(43.7439436, -79.4308512, 0.0)",43.7439436,-79.4308512
Bathurst Manor,"Bathurst Manor,Toronto,Ontario","Bathurst, Poulters Place, Mirvish Village, University—Rosedale, Old Toronto, Toronto, Golden Horseshoe, Ontario, M6G 1K1, Canada","(43.6655189, -79.4119373, 0.0)",43.6655189,-79.4119373
Bayview Village,"Bayview Village,Toronto,Ontario","Bayview Village, Don Valley North, North York, Toronto, Golden Horseshoe, Ontario, M2K 1C3, Canada","(43.7691966, -79.3766617, 0.0)",43.7691966,-79.3766617
Bayview Woods-Steeles,"Bayview Woods-Steeles,Toronto,Ontario","Bayview Woods-Steeles, Don Valley North, North York, Toronto, Golden Horseshoe, Ontario, M2M 2Y1, Canada","(43.7981268, -79.3829726, 0.0)",43.7981268,-79.3829726
Bermondsey,"Bermondsey,Toronto,Ontario","Bermondsey Road, Woodbine Gardens, Beaches—East York, East York, Toronto, Golden Horseshoe, Ontario, M4B 2T8, Canada","(43.7138242, -79.3106776, 0.0)",43.7138242,-79.3106776
Bridle Path,"Bridle Path,Toronto,Ontario","The Bridle Path, Don Valley West, North York, Toronto, Golden Horseshoe, Ontario, M3C 2N2, Canada","(43.7353996, -79.370883, 0.0)",43.7353996,-79.370883
Clanton Park,"Clanton Park,Toronto,Ontario","Clanton Park Road, Wilson Heights, York Centre, North York, Toronto, Golden Horseshoe, Ontario, M3H 1N1, Canada","(43.7457757, -79.4405557, 0.0)",43.7457757,-79.4405557
Don Mills,"Don Mills,Toronto,Ontario","Don Mills, Sheppard Avenue East, Parkway Forest, Don Valley North, North York, Toronto, Golden Horseshoe, Ontario, M2J 5A7, Canada","(43.775347, -79.3459439, 0.0)",43.775347,-79.3459439
Don Valley Village,"Don Valley Village,Toronto,Ontario","Don Valley Village, Don Valley North, North York, Toronto, Golden Horseshoe, Ontario, M2J 4X9, Canada","(43.7926732, -79.3547219, 0.0)",43.7926732,-79.3547219
Downsview,"Downsview,Toronto,Ontario","Sheppard West, Sheppard West Bus Terminal, York Centre, North York, Toronto, Golden Horseshoe, Ontario, M3H 5R2, Canada","(43.7492988, -79.462248, 0.0)",43.7492988,-79.462248
Flemingdon Park,"Flemingdon Park,Toronto,Ontario","Flemingdon Park, Don Valley East, North York, Toronto, Golden Horseshoe, Ontario, M3C 1C3, Canada","(43.7184315, -79.333204, 0.0)",43.7184315,-79.333204
Glen Park,"Glen Park,Toronto,Ontario","Glen Park, Eglinton—Lawrence, North York, Toronto, Golden Horseshoe, Ontario, M6B 2A2, Canada","(43.7090016, -79.4437983, 0.0)",43.7090016,-79.4437983
Graydon Hall,"Graydon Hall,Toronto,Ontario","Graydon Hall Park, Don Valley East, North York, Toronto, Golden Horseshoe, Ontario, Canada","(43.7628628, -79.34266657947444, 0.0)",43.7628628,-79.34266657947444
Henry Farm,"Henry Farm,Toronto,Ontario","Henry Farm, Don Valley North, North York, Toronto, Golden Horseshoe, Ontario, M2J 1H5, Canada","(43.7695089, -79.354296, 0.0)",43.7695089,-79.354296
Hillcrest Village,"Hillcrest Village,Toronto,Ontario","Hillcrest Village, Toronto—St. Paul's, Old Toronto, Toronto, Golden Horseshoe, Ontario, M6C 1A7, Canada","(43.6816953, -79.4257118, 0.0)",43.6816953,-79.4257118
Hoggs Hollow,"Hoggs Hollow,Toronto,Ontario","Hogg's Hollow, Don Valley West, North York, Toronto, Golden Horseshoe, Ontario, M4N 3N6, Canada","(43.7415342, -79.4028781, 0.0)",43.7415342,-79.4028781
Humber Summit,"Humber Summit,Toronto,Ontario","Humber Summit, Humber River—Black Creek, North York, Toronto, Golden Horseshoe, Ontario, L4L 4T5, Canada","(43.7600778, -79.5717598, 0.0)",43.7600778,-79.5717598
Humbermede,"Humbermede,Toronto,Ontario",,,,
Jane and Finch,"Jane and Finch,Toronto,Ontario","Jane & Finch, Humber River—Black Creek, North York, Toronto, Golden Horseshoe, Ontario, M3N 2Y9, Canada","(43.7572532, -79.5176975, 0.0)",43.7572532,-79.5176975
Lansing,"Lansing,Toronto,Ontario","Lansing, Willowdale, North York, Toronto, Golden Horseshoe, Ontario, M2N 6P8, Canada","(43.7589503, -79.4225555, 0.0)",43.7589503,-79.4225555
Lawrence Heights,"Lawrence Heights,Toronto,Ontario","Lawrence Heights, Eglinton—Lawrence, North York, Toronto, Golden Horseshoe, Ontario, M6A 2R1, Canada","(43.7227784, -79.4509332, 0.0)",43.7227784,-79.4509332
Lawrence Manor,"Lawrence Manor,Toronto,Ontario","Lawrence Manor, Eglinton—Lawrence, North York, Toronto, Golden Horseshoe, Ontario, M6A 2G3, Canada","(43.7220788, -79.4375067, 0.0)",43.7220788,-79.4375067
Maple Leaf,"Maple Leaf,Toronto,Ontario","Maple Leaf, York South—Weston, North York, Toronto, Golden Horseshoe, Ontario, M6L 1P3, Canada","(43.7122767, -79.4901977, 0.0)",43.7122767,-79.4901977
Newtonbrook,"Newtonbrook,Toronto,Ontario","Newtonbrook, Willowdale, North York, Toronto, Golden Horseshoe, Ontario, M2M 2S5, Canada","(43.795986, -79.4130896, 0.0)",43.795986,-79.4130896
North York City Centre,"North York City Centre,Toronto,Ontario","North York, York Centre, North York, Toronto, Golden Horseshoe, Ontario, M3L 2E8, Canada","(43.7393959, -79.513131, 0.0)",43.7393959,-79.513131
Parkway Forest,"Parkway Forest,Toronto,Ontario","Parkway Forest, Don Valley North, North York, Toronto, Golden Horseshoe, Ontario, M2J 1M4, Canada","(43.77166, -79.3426631, 0.0)",43.77166,-79.3426631
Parkwoods,"Parkwoods,Toronto,Ontario","Parkwoods Village Drive, Parkway East, Don Valley East, North York, Toronto, Golden Horseshoe, Ontario, M3A 2X2, Canada","(43.7587999, -79.3201966, 0.0)",43.7587999,-79.3201966
Pelmo Park-Humberlea,"Pelmo Park-Humberlea,Toronto,Ontario",,,,
Pleasant View,"Pleasant View,Toronto,Ontario","Pleasant View, Don Valley North, North York, Toronto, Golden Horseshoe, Ontario, M2J 3Y8, Canada","(43.787048, -79.3337137, 0.0)",43.787048,-79.3337137
Rustic,"Rustic,Toronto,Ontario","Rustic Park, 35, York South—Weston, North York, Toronto, Golden Horseshoe, Ontario, Canada","(43.71336615, -79.50450373904313, 0.0)",43.71336615,-79.50450373904313
Teddington Park,"Teddington Park,Toronto,Ontario","The Teddington, 4, Teddington Park Avenue, Lawrence Park, Don Valley West, Old Toronto, Toronto, Golden Horseshoe, Ontario, M4N 2C3, Canada","(43.73344, -79.40390409013003, 0.0)",43.73344,-79.40390409013003
Victoria Village,"Victoria Village,Toronto,Ontario","Victoria Village, Don Valley East, North York, Toronto, Golden Horseshoe, Ontario, M4A 2B1, Canada","(43.732658, -79.3111892, 0.0)",43.732658,-79.3111892
Westminster-Branson,"Westminster-Branson,Toronto,Ontario",,,,
Willowdale,"Willowdale,Toronto,Ontario","Willowdale, North York, Toronto, Golden Horseshoe, Ontario, Canada","(43.7615095, -79.4109234, 0.0)",43.7615095,-79.4109234
York Mills,"York Mills,Toronto,Ontario","York Mills, Wilson Avenue, St. John, Don Valley West, North York, Toronto, Golden Horseshoe, Ontario, M2P 2E3, Canada","(43.7440391, -79.406657, 0.0)",43.7440391,-79.406657
York University Heights,"York University Heights,Toronto,Ontario","York University, 1, York Gate Boulevard, Jane & Finch, Humber River—Black Creek, North York, Toronto, Golden Horseshoe, Ontario, M3N 1M9, Canada","(43.7587808, -79.5194336, 0.0)",43.7587808,-79.5194336
Alderwood,"Alderwood,Toronto,Ontario","Alderwood, Etobicoke—Lakeshore, Etobicoke, Toronto, Golden Horseshoe, Ontario, M8W 3T7, Canada","(43.6017173, -79.5452325, 0.0)",43.6017173,-79.5452325
Clairville,"Clairville,Toronto,Ontario","West Humber-Clairville, Etobicoke, Toronto, Golden Horseshoe, Ontario, Canada","(43.72337025, -79.59745741095173, 0.0)",43.72337025,-79.59745741095173
Eatonville,"Eatonville,Toronto,Ontario","Eatonville, Etobicoke Centre, Etobicoke, Toronto, Golden Horseshoe, Ontario, M9B 2A9, Canada","(43.6462843, -79.5600005, 0.0)",43.6462843,-79.5600005
The Elms,"The Elms,Toronto,Ontario","The Elms, Humber Heights, Etobicoke Centre, Etobicoke, Toronto, Golden Horseshoe, Ontario, M9N 1X4, Canada","(43.6969975, -79.5218834, 0.0)",43.6969975,-79.5218834
Eringate-Centennial-West Deane,"Eringate-Centennial-West Deane,Toronto,Ontario",,,,
Humber Heights-Westmount,"Humber Heights-Westmount,Toronto,Ontario","Vista Humber Drive, Humber Heights, Etobicoke Centre, Etobicoke, Toronto, Golden Horseshoe, Ontario, M9N 1X4, Canada","(43.6977767, -79.5212217, 0.0)",43.6977767,-79.5212217
Humber Valley Village,"Humber Valley Village,Toronto,Ontario","Humber Valley, Etobicoke Centre, Etobicoke, Toronto, Golden Horseshoe, Ontario, M9A 3V3, Canada","(43.6664717, -79.5243136, 0.0)",43.6664717,-79.5243136
Humberwood,"Humberwood,Toronto,Ontario","The Humberwood, 2, Armel Court, Etobicoke North, Etobicoke, Toronto, Golden Horseshoe, Ontario, M9W 6A6, Canada","(43.722525, -79.54602434384384, 0.0)",43.722525,-79.54602434384384
Islington-City Centre West,"Islington-City Centre West,Toronto,Ontario","Islington, 1240, Islington Avenue, Islington Village, Etobicoke—Lakeshore, Etobicoke, Toronto, Golden Horseshoe, Ontario, M8X 1G4, Canada","(43.645335, -79.5248163, 0.0)",43.645335,-79.5248163
Kingsview Village,"Kingsview Village,Toronto,Ontario","Kingsview Village, Etobicoke North, Etobicoke, Toronto, Golden Horseshoe, Ontario, M9R 1T7, Canada","(43.6995391, -79.5563459, 0.0)",43.6995391,-79.5563459
The Kingsway,"The Kingsway,Toronto,Ontario","The Kingsway, Etobicoke—Lakeshore, Etobicoke, Toronto, Golden Horseshoe, Ontario, M8X 1C3, Canada","(43.6473811, -79.5113328, 0.0)",43.6473811,-79.5113328
Long Branch,"Long Branch,Toronto,Ontario","Long Branch, Etobicoke—Lakeshore, Etobicoke, Toronto, Golden Horseshoe, Ontario, M8W 1R2, Canada","(43.59200455, -79.54536450659592, 0.0)",43.59200455,-79.54536450659592
Markland Wood,"Markland Wood,Toronto,Ontario","Markland Wood Golf Club, 245, Markland Drive, Old Burnhamthorpe, Etobicoke Centre, Etobicoke, Toronto, Golden Horseshoe, Ontario, M9C 1R1, Canada","(43.63123865, -79.58543401986114, 0.0)",43.63123865,-79.58543401986114
Mimico,"Mimico,Toronto,Ontario","Mimico, Windsor Street, Mimico Village, Etobicoke—Lakeshore, Etobicoke, Toronto, Golden Horseshoe, Ontario, M8Y 2R3, Canada","(43.6166773, -79.4968048, 0.0)",43.6166773,-79.4968048
New Toronto,"New Toronto,Toronto,Ontario","New Toronto, Etobicoke—Lakeshore, Etobicoke, Toronto, Golden Horseshoe, Ontario, M8V 1J2, Canada","(43.6007625, -79.505264, 0.0)",43.6007625,-79.505264
Princess Gardens,"Princess Gardens,Toronto,Ontario","The Princess, Navy Wharf Court, CityPlace, Spadina—Fort York, Old Toronto, Toronto, Golden Horseshoe, Ontario, M5V 3Y7, Canada","(43.6404664, -79.3912237, 0.0)",43.6404664,-79.3912237
Rexdale,"Rexdale,Toronto,Ontario","Rexdale, Etobicoke North, Etobicoke, Toronto, Golden Horseshoe, Ontario, M9W 3Z3, Canada","(43.7213619, -79.5655129, 0.0)",43.7213619,-79.5655129
Richview,"Richview,Toronto,Ontario","Richview, Etobicoke Centre, Etobicoke, Toronto, Golden Horseshoe, Ontario, M9P 3N3, Canada","(43.688589, -79.5428473, 0.0)",43.688589,-79.5428473
The Queensway-Humber Bay,"The Queensway-Humber Bay,Toronto,Ontario",,,,
Smithfield,"Smithfield,Toronto,Ontario","Smithfield Drive, Etobicoke—Lakeshore, Etobicoke, Toronto, Golden Horseshoe, Ontario, M8Y 1J3, Canada","(43.631184, -79.4856673, 0.0)",43.631184,-79.4856673
Thistletown,"Thistletown,Toronto,Ontario","Thistletown, Etobicoke North, Etobicoke, Toronto, Golden Horseshoe, Ontario, M9V 4B4, Canada","(43.7372656, -79.5653169, 0.0)",43.7372656,-79.5653169
Bermondsey,"Bermondsey,Toronto,Ontario","Bermondsey Road, Woodbine Gardens, Beaches—East York, East York, Toronto, Golden Horseshoe, Ontario, M4B 2T8, Canada","(43.7138242, -79.3106776, 0.0)",43.7138242,-79.3106776
Crescent Town,"Crescent Town,Toronto,Ontario","Crescent Town, Beaches—East York, East York, Toronto, Golden Horseshoe, Ontario, M4C 5M9, Canada","(43.695403, -79.293099, 0.0)",43.695403,-79.293099
Governor's Bridge,"Governor's Bridge,Toronto,Ontario","Governor's Bridge, Ravine Beltline Trail, Moore Park, University—Rosedale, Old Toronto, Toronto, Golden Horseshoe, Ontario, M4G 1B1, Canada","(43.6894235, -79.3694257, 0.0)",43.6894235,-79.3694257
Leaside,"Leaside,Toronto,Ontario","Leaside, Don Valley West, East York, Toronto, Golden Horseshoe, Ontario, M4G 3K2, Canada","(43.7047983, -79.3680904, 0.0)",43.7047983,-79.3680904
O'Connor-Parkview,"O'Connor-Parkview,Toronto,Ontario","O'Connor Drive, Woodbine Heights, Beaches—East York, East York, Toronto, Golden Horseshoe, Ontario, M4C 4K7, Canada","(43.7023902, -79.3160976, 0.0)",43.7023902,-79.3160976
Old East York,"Old East York,Toronto,Ontario","East York, Toronto, Golden Horseshoe, Ontario, Canada","(43.699971000000005, -79.33251996261595, 0.0)",43.699971000000005,-79.33251996261595
Pape Village,"Pape Village,Toronto,Ontario","Pape Village, Toronto—Danforth, East York, Toronto, Golden Horseshoe, Ontario, M4K 3W2, Canada","(43.6893775, -79.3488243, 0.0)",43.6893775,-79.3488243
Thorncliffe Park,"Thorncliffe Park,Toronto,Ontario","Thorncliffe Park, Don Valley West, East York, Toronto, Golden Horseshoe, Ontario, M4H 1K3, Canada","(43.704553, -79.3454074, 0.0)",43.704553,-79.3454074
